CCSDS_OMM_VERS = 2.0
CREATION_DATE  = 
ORIGINATOR     = 

OBJECT_NAME    = STARLINK-36588
OBJECT_ID      = 2026-016N
CENTER_NAME    = EARTH
REF_FRAME      = TEME
TIME_SYSTEM    = UTC
MEAN_ELEMENT_THEORY = SGP/SGP4

EPOCH          = 2026-02-22T03:33:34.249248
MEAN_MOTION    = 15.75203676
ECCENTRICITY   = .000142
INCLINATION    = 97.2846
RA_OF_ASC_NODE = 112.8176
ARG_OF_PERICENTER = 66.8838
MEAN_ANOMALY   = 293.2576

EPHEMERIS_TYPE = 0
CLASSIFICATION_TYPE = U
NORAD_CAT_ID   = 67573
ELEMENT_SET_NO = 999
REV_AT_EPOCH   = 435
BSTAR          = .10131E-2
MEAN_MOTION_DOT = .153826E-2
MEAN_MOTION_DDOT = 0

CCSDS_OMM_VERS = 2.0
CREATION_DATE  = 
ORIGINATOR     = 

OBJECT_NAME    = STARLINK-36594
OBJECT_ID      = 2026-016P
CENTER_NAME    = EARTH
REF_FRAME      = TEME
TIME_SYSTEM    = UTC
MEAN_ELEMENT_THEORY = SGP/SGP4

EPOCH          = 2026-02-22T04:00:01.999584
MEAN_MOTION    = 15.75219007
ECCENTRICITY   = .000114
INCLINATION    = 97.2840
RA_OF_ASC_NODE = 112.9261
ARG_OF_PERICENTER = 75.0408
MEAN_ANOMALY   = 231.2022

EPHEMERIS_TYPE = 0
CLASSIFICATION_TYPE = U
NORAD_CAT_ID   = 67574
ELEMENT_SET_NO = 999
REV_AT_EPOCH   = 560
BSTAR          = -.26836E-3
MEAN_MOTION_DOT = -.40019E-3
MEAN_MOTION_DDOT = 0

CCSDS_OMM_VERS = 2.0
CREATION_DATE  = 
ORIGINATOR     = 

OBJECT_NAME    = STARLINK-36400
OBJECT_ID      = 2026-016Q
CENTER_NAME    = EARTH
REF_FRAME      = TEME
TIME_SYSTEM    = UTC
MEAN_ELEMENT_THEORY = SGP/SGP4

EPOCH          = 2026-02-22T03:08:09.447360
MEAN_MOTION    = 15.75209014
ECCENTRICITY   = .0002301
INCLINATION    = 97.2827
RA_OF_ASC_NODE = 112.8419
ARG_OF_PERICENTER = 97.6760
MEAN_ANOMALY   = 262.4766

EPHEMERIS_TYPE = 0
CLASSIFICATION_TYPE = U
NORAD_CAT_ID   = 67575
ELEMENT_SET_NO = 999
REV_AT_EPOCH   = 435
BSTAR          = .85308E-3
MEAN_MOTION_DOT = .129169E-2
MEAN_MOTION_DDOT = 0

CCSDS_OMM_VERS = 2.0
CREATION_DATE  = 
ORIGINATOR     = 

OBJECT_NAME    = STARLINK-36591
OBJECT_ID      = 2026-016R
CENTER_NAME    = EARTH
REF_FRAME      = TEME
TIME_SYSTEM    = UTC
MEAN_ELEMENT_THEORY = SGP/SGP4

EPOCH          = 2026-02-22T02:50:53.031840
MEAN_MOTION    = 15.75265235
ECCENTRICITY   = .0001312
INCLINATION    = 97.2845
RA_OF_ASC_NODE = 112.8591
ARG_OF_PERICENTER = 106.1736
MEAN_ANOMALY   = 253.9673

EPHEMERIS_TYPE = 0
CLASSIFICATION_TYPE = U
NORAD_CAT_ID   = 67576
ELEMENT_SET_NO = 999
REV_AT_EPOCH   = 435
BSTAR          = .16411E-2
MEAN_MOTION_DOT = .252854E-2
MEAN_MOTION_DDOT = 0

CCSDS_OMM_VERS = 2.0
CREATION_DATE  = 
ORIGINATOR     = 

OBJECT_NAME    = STARLINK-36590
OBJECT_ID      = 2026-016S
CENTER_NAME    = EARTH
REF_FRAME      = TEME
TIME_SYSTEM    = UTC
MEAN_ELEMENT_THEORY = SGP/SGP4

EPOCH          = 2026-02-22T03:13:44.984352
MEAN_MOTION    = 15.75190035
ECCENTRICITY   = .0001543
INCLINATION    = 97.2847
RA_OF_ASC_NODE = 112.8384
ARG_OF_PERICENTER = 83.2569
MEAN_ANOMALY   = 276.8872

EPHEMERIS_TYPE = 0
CLASSIFICATION_TYPE = U
NORAD_CAT_ID   = 67577
ELEMENT_SET_NO = 999
REV_AT_EPOCH   = 435
BSTAR          = .87297E-3
MEAN_MOTION_DOT = .132112E-2
MEAN_MOTION_DDOT = 0

CCSDS_OMM_VERS = 2.0
CREATION_DATE  = 
ORIGINATOR     = 

OBJECT_NAME    = STARLINK-36613
OBJECT_ID      = 2026-016T
CENTER_NAME    = EARTH
REF_FRAME      = TEME
TIME_SYSTEM    = UTC
MEAN_ELEMENT_THEORY = SGP/SGP4

EPOCH          = 2026-02-22T02:24:59.539968
MEAN_MOTION    = 15.80889030
ECCENTRICITY   = .0001176
INCLINATION    = 97.2839
RA_OF_ASC_NODE = 112.8819
ARG_OF_PERICENTER = 126.7936
MEAN_ANOMALY   = 233.3440

EPHEMERIS_TYPE = 0
CLASSIFICATION_TYPE = U
NORAD_CAT_ID   = 67578
ELEMENT_SET_NO = 999
REV_AT_EPOCH   = 435
BSTAR          = .12683E-2
MEAN_MOTION_DOT = .250749E-2
MEAN_MOTION_DDOT = 0

CCSDS_OMM_VERS = 2.0
CREATION_DATE  = 
ORIGINATOR     = 

OBJECT_NAME    = STARLINK-36571
OBJECT_ID      = 2026-016U
CENTER_NAME    = EARTH
REF_FRAME      = TEME
TIME_SYSTEM    = UTC
MEAN_ELEMENT_THEORY = SGP/SGP4

EPOCH          = 2026-02-21T16:38:58.360128
MEAN_MOTION    = 15.75147712
ECCENTRICITY   = .00013042
INCLINATION    = 97.2837
RA_OF_ASC_NODE = 112.3669
ARG_OF_PERICENTER = 70.6165
MEAN_ANOMALY   = 289.5241

EPHEMERIS_TYPE = 0
CLASSIFICATION_TYPE = U
NORAD_CAT_ID   = 67579
ELEMENT_SET_NO = 999
REV_AT_EPOCH   = 428
BSTAR          = .1521676E-2
MEAN_MOTION_DOT = .232707E-2
MEAN_MOTION_DDOT = 0

CCSDS_OMM_VERS = 2.0
CREATION_DATE  = 
ORIGINATOR     = 

OBJECT_NAME    = STARLINK-36612
OBJECT_ID      = 2026-016V
CENTER_NAME    = EARTH
REF_FRAME      = TEME
TIME_SYSTEM    = UTC
MEAN_ELEMENT_THEORY = SGP/SGP4

EPOCH          = 2026-02-20T03:15:29.594016
MEAN_MOTION    = 15.80855073
ECCENTRICITY   = .00016227
INCLINATION    = 97.2829
RA_OF_ASC_NODE = 110.8096
ARG_OF_PERICENTER = 91.3110
MEAN_ANOMALY   = 268.8344

EPHEMERIS_TYPE = 0
CLASSIFICATION_TYPE = U
NORAD_CAT_ID   = 67580
ELEMENT_SET_NO = 999
REV_AT_EPOCH   = 404
BSTAR          = .43353183E-3
MEAN_MOTION_DOT = .83853E-3
MEAN_MOTION_DDOT = 0

CCSDS_OMM_VERS = 2.0
CREATION_DATE  = 
ORIGINATOR     = 

OBJECT_NAME    = STARLINK-36632
OBJECT_ID      = 2026-016W
CENTER_NAME    = EARTH
REF_FRAME      = TEME
TIME_SYSTEM    = UTC
MEAN_ELEMENT_THEORY = SGP/SGP4

EPOCH          = 2026-02-21T16:21:41.568768
MEAN_MOTION    = 15.75176348
ECCENTRICITY   = .00015078
INCLINATION    = 97.2837
RA_OF_ASC_NODE = 112.3807
ARG_OF_PERICENTER = 155.5160
MEAN_ANOMALY   = 204.6177

EPHEMERIS_TYPE = 0
CLASSIFICATION_TYPE = U
NORAD_CAT_ID   = 67581
ELEMENT_SET_NO = 999
REV_AT_EPOCH   = 428
BSTAR          = .13951193E-2
MEAN_MOTION_DOT = .213112E-2
MEAN_MOTION_DDOT = 0

CCSDS_OMM_VERS = 2.0
CREATION_DATE  = 
ORIGINATOR     = 

OBJECT_NAME    = STARLINK-36609
OBJECT_ID      = 2026-016X
CENTER_NAME    = EARTH
REF_FRAME      = TEME
TIME_SYSTEM    = UTC
MEAN_ELEMENT_THEORY = SGP/SGP4

EPOCH          = 2026-02-21T16:44:33.810720
MEAN_MOTION    = 15.75182753
ECCENTRICITY   = .00011055
INCLINATION    = 97.2841
RA_OF_ASC_NODE = 112.3596
ARG_OF_PERICENTER = 80.1847
MEAN_ANOMALY   = 279.9543

EPHEMERIS_TYPE = 0
CLASSIFICATION_TYPE = U
NORAD_CAT_ID   = 67582
ELEMENT_SET_NO = 999
REV_AT_EPOCH   = 428
BSTAR          = .21364324E-2
MEAN_MOTION_DOT = .331109E-2
MEAN_MOTION_DDOT = 0

CCSDS_OMM_VERS = 2.0
CREATION_DATE  = 
ORIGINATOR     = 

OBJECT_NAME    = STARLINK-36577
OBJECT_ID      = 2026-016Y
CENTER_NAME    = EARTH
REF_FRAME      = TEME
TIME_SYSTEM    = UTC
MEAN_ELEMENT_THEORY = SGP/SGP4

EPOCH          = 2026-02-21T21:46:11.206560
MEAN_MOTION    = 15.79062778
ECCENTRICITY   = .00028953
INCLINATION    = 97.2833
RA_OF_ASC_NODE = 112.6861
ARG_OF_PERICENTER = 182.6464
MEAN_ANOMALY   = 177.4789

EPHEMERIS_TYPE = 0
CLASSIFICATION_TYPE = U
NORAD_CAT_ID   = 67583
ELEMENT_SET_NO = 999
REV_AT_EPOCH   = 432
BSTAR          = -.47877682E-2
MEAN_MOTION_DOT = -.775849E-2
MEAN_MOTION_DDOT = 0

CCSDS_OMM_VERS = 2.0
CREATION_DATE  = 
ORIGINATOR     = 

OBJECT_NAME    = STARLINK-36419
OBJECT_ID      = 2026-016Z
CENTER_NAME    = EARTH
REF_FRAME      = TEME
TIME_SYSTEM    = UTC
MEAN_ELEMENT_THEORY = SGP/SGP4

EPOCH          = 2026-02-21T15:58:50.393856
MEAN_MOTION    = 15.75341513
ECCENTRICITY   = .00022503
INCLINATION    = 97.2845
RA_OF_ASC_NODE = 112.4044
ARG_OF_PERICENTER = 42.0314
MEAN_ANOMALY   = 318.1123

EPHEMERIS_TYPE = 0
CLASSIFICATION_TYPE = U
NORAD_CAT_ID   = 67584
ELEMENT_SET_NO = 999
REV_AT_EPOCH   = 428
BSTAR          = .24139315E-2
MEAN_MOTION_DOT = .378837E-2
MEAN_MOTION_DDOT = 0

