STARLINK-36588          
1 67573U 26016N   26053.14831307  .00153826  00000+0  10131-2 0  9998
2 67573  97.2846 112.8176 0001420  66.8838 293.2576 15.75203676  4356
STARLINK-36594          
1 67574U 26016P   26053.16668981 -.00040019  00000+0 -26836-3 0  9998
2 67574  97.2840 112.9261 0001140  75.0408 231.2022 15.75219007  5603
STARLINK-36400          
1 67575U 26016Q   26053.13066490  .00129169  00000+0  85308-3 0  9994
2 67575  97.2827 112.8419 0002301  97.6760 262.4766 15.75209014  4353
STARLINK-36591          
1 67576U 26016R   26053.11866935  .00252854  00000+0  16411-2 0  9991
2 67576  97.2845 112.8591 0001312 106.1736 253.9673 15.75265235  4354
STARLINK-36590          
1 67577U 26016S   26053.13454843  .00132112  00000+0  87297-3 0  9990
2 67577  97.2847 112.8384 0001543  83.2569 276.8872 15.75190035  4352
STARLINK-36613          
1 67578U 26016T   26053.10068912  .00250749  00000+0  12683-2 0  9999
2 67578  97.2839 112.8819 0001176 126.7936 233.3440 15.80889030  4355
STARLINK-36571          
1 67579U 26016U   26052.69373102  .00232707  00000+0  15217-2 0  9993
2 67579  97.2837 112.3669 0001304  70.6165 289.5241 15.75147712  4288
STARLINK-36612          
1 67580U 26016V   26051.13575919  .00083853  00000+0  43353-3 0  9992
2 67580  97.2829 110.8096 0001622  91.3110 268.8344 15.80855073  4041
STARLINK-36632          
1 67581U 26016W   26052.68173112  .00213112  00000+0  13951-2 0  9996
2 67581  97.2837 112.3807 0001507 155.5160 204.6177 15.75176348  4281
STARLINK-36609          
1 67582U 26016X   26052.69761355  .00331109  00000+0  21364-2 0  9994
2 67582  97.2841 112.3596 0001105  80.1847 279.9543 15.75182753  4280
STARLINK-36577          
1 67583U 26016Y   26052.90707415 -.00775849  00000+0 -47878-2 0  9999
2 67583  97.2833 112.6861 0002895 182.6464 177.4789 15.79062778  4327
STARLINK-36419          
1 67584U 26016Z   26052.66586104  .00378837  00000+0  24139-2 0  9992
2 67584  97.2845 112.4044 0002250  42.0314 318.1123 15.75341513  4284
